LEMUR-2-DEMBITZ         
1 42842U 17042T   26068.47492167  .00020231  00000+0  76561-3 0  9991
2 42842  97.3807 250.9241 0006961  17.1421 343.0051 15.26947128473114
STARLINK-36054          
1 66812U 25278X   26068.52482990  .00028860  00000+0  10530-2 0  9992
2 66812  43.0022 115.3149 0001475 293.8382  66.2315 15.27616009 15187
